<?xml version="1.0" encoding="UTF-8"?>
<ndm xmlns:xsi="http://www.w3.org/2001/XMLSchema-instance" xsi:noNamespaceSchemaLocation="https://sanaregistry.org/r/ndmxml_unqualified/ndmxml-2.0.0-master-2.0.xsd">
<omm id="CCSDS_OMM_VERS" version="2.0">
<header><CREATION_DATE/><ORIGINATOR/></header><body><segment><metadata><OBJECT_NAME>ONEWEB-0116</OBJECT_NAME><OBJECT_ID>2021-025E</OBJECT_ID><CENTER_NAME>EARTH</CENTER_NAME><REF_FRAME>TEME</REF_FRAME><TIME_SYSTEM>UTC</TIME_SYSTEM><MEAN_ELEMENT_THEORY>SGP4</MEAN_ELEMENT_THEORY></metadata><data><meanElements><EPOCH>2024-08-31T20:07:19.835328</EPOCH><MEAN_MOTION>13.13471035</MEAN_MOTION><ECCENTRICITY>.0001553</ECCENTRICITY><INCLINATION>87.8862</INCLINATION><RA_OF_ASC_NODE>90.4195</RA_OF_ASC_NODE><ARG_OF_PERICENTER>82.7638</ARG_OF_PERICENTER><MEAN_ANOMALY>277.3668</MEAN_ANOMALY></meanElements><tleParameters><EPHEMERIS_TYPE>0</EPHEMERIS_TYPE><CLASSIFICATION_TYPE>U</CLASSIFICATION_TYPE><NORAD_CAT_ID>48046</NORAD_CAT_ID><ELEMENT_SET_NO>999</ELEMENT_SET_NO><REV_AT_EPOCH>16775</REV_AT_EPOCH><BSTAR>-.58606E-3</BSTAR><MEAN_MOTION_DOT>-.201E-5</MEAN_MOTION_DOT><MEAN_MOTION_DDOT>0</MEAN_MOTION_DDOT></tleParameters></data></segment></body></omm>
<omm id="CCSDS_OMM_VERS" version="2.0">
<header><CREATION_DATE/><ORIGINATOR/></header><body><segment><metadata><OBJECT_NAME>ONEWEB-0150</OBJECT_NAME><OBJECT_ID>2021-025F</OBJECT_ID><CENTER_NAME>EARTH</CENTER_NAME><REF_FRAME>TEME</REF_FRAME><TIME_SYSTEM>UTC</TIME_SYSTEM><MEAN_ELEMENT_THEORY>SGP4</MEAN_ELEMENT_THEORY></metadata><data><meanElements><EPOCH>2024-08-31T19:30:46.456416</EPOCH><MEAN_MOTION>13.13470315</MEAN_MOTION><ECCENTRICITY>.0001856</ECCENTRICITY><INCLINATION>87.8852</INCLINATION><RA_OF_ASC_NODE>90.4395</RA_OF_ASC_NODE><ARG_OF_PERICENTER>83.7495</ARG_OF_PERICENTER><MEAN_ANOMALY>276.3845</MEAN_ANOMALY></meanElements><tleParameters><EPHEMERIS_TYPE>0</EPHEMERIS_TYPE><CLASSIFICATION_TYPE>U</CLASSIFICATION_TYPE><NORAD_CAT_ID>48047</NORAD_CAT_ID><ELEMENT_SET_NO>999</ELEMENT_SET_NO><REV_AT_EPOCH>16764</REV_AT_EPOCH><BSTAR>.88611E-4</BSTAR><MEAN_MOTION_DOT>.45E-6</MEAN_MOTION_DOT><MEAN_MOTION_DDOT>0</MEAN_MOTION_DDOT></tleParameters></data></segment></body></omm>
<omm id="CCSDS_OMM_VERS" version="2.0">
<header><CREATION_DATE/><ORIGINATOR/></header><body><segment><metadata><OBJECT_NAME>ONEWEB-0107</OBJECT_NAME><OBJECT_ID>2021-025G</OBJECT_ID><CENTER_NAME>EARTH</CENTER_NAME><REF_FRAME>TEME</REF_FRAME><TIME_SYSTEM>UTC</TIME_SYSTEM><MEAN_ELEMENT_THEORY>SGP4</MEAN_ELEMENT_THEORY></metadata><data><meanElements><EPOCH>2024-08-31T19:33:02.900160</EPOCH><MEAN_MOTION>13.13470401</MEAN_MOTION><ECCENTRICITY>.0001986</ECCENTRICITY><INCLINATION>87.8854</INCLINATION><RA_OF_ASC_NODE>90.4369</RA_OF_ASC_NODE><ARG_OF_PERICENTER>83.7278</ARG_OF_PERICENTER><MEAN_ANOMALY>276.4078</MEAN_ANOMALY></meanElements><tleParameters><EPHEMERIS_TYPE>0</EPHEMERIS_TYPE><CLASSIFICATION_TYPE>U</CLASSIFICATION_TYPE><NORAD_CAT_ID>48048</NORAD_CAT_ID><ELEMENT_SET_NO>999</ELEMENT_SET_NO><REV_AT_EPOCH>16762</REV_AT_EPOCH><BSTAR>.11039E-3</BSTAR><MEAN_MOTION_DOT>.53E-6</MEAN_MOTION_DOT><MEAN_MOTION_DDOT>0</MEAN_MOTION_DDOT></tleParameters></data></segment></body></omm>
<omm id="CCSDS_OMM_VERS" version="2.0">
<header><CREATION_DATE/><ORIGINATOR/></header><body><segment><metadata><OBJECT_NAME>ONEWEB-0101</OBJECT_NAME><OBJECT_ID>2021-025H</OBJECT_ID><CENTER_NAME>EARTH</CENTER_NAME><REF_FRAME>TEME</REF_FRAME><TIME_SYSTEM>UTC</TIME_SYSTEM><MEAN_ELEMENT_THEORY>SGP4</MEAN_ELEMENT_THEORY></metadata><data><meanElements><EPOCH>2024-08-31T20:30:11.323008</EPOCH><MEAN_MOTION>13.13473631</MEAN_MOTION><ECCENTRICITY>.000197</ECCENTRICITY><INCLINATION>87.8870</INCLINATION><RA_OF_ASC_NODE>90.4493</RA_OF_ASC_NODE><ARG_OF_PERICENTER>88.2117</ARG_OF_PERICENTER><MEAN_ANOMALY>271.9237</MEAN_ANOMALY></meanElements><tleParameters><EPHEMERIS_TYPE>0</EPHEMERIS_TYPE><CLASSIFICATION_TYPE>U</CLASSIFICATION_TYPE><NORAD_CAT_ID>48049</NORAD_CAT_ID><ELEMENT_SET_NO>999</ELEMENT_SET_NO><REV_AT_EPOCH>16760</REV_AT_EPOCH><BSTAR>.46268E-3</BSTAR><MEAN_MOTION_DOT>.182E-5</MEAN_MOTION_DOT><MEAN_MOTION_DDOT>0</MEAN_MOTION_DDOT></tleParameters></data></segment></body></omm>
<omm id="CCSDS_OMM_VERS" version="2.0">
<header><CREATION_DATE/><ORIGINATOR/></header><body><segment><metadata><OBJECT_NAME>ONEWEB-0113</OBJECT_NAME><OBJECT_ID>2021-025J</OBJECT_ID><CENTER_NAME>EARTH</CENTER_NAME><REF_FRAME>TEME</REF_FRAME><TIME_SYSTEM>UTC</TIME_SYSTEM><MEAN_ELEMENT_THEORY>SGP4</MEAN_ELEMENT_THEORY></metadata><data><meanElements><EPOCH>2024-08-31T19:58:10.797024</EPOCH><MEAN_MOTION>13.13470762</MEAN_MOTION><ECCENTRICITY>.000154</ECCENTRICITY><INCLINATION>87.8864</INCLINATION><RA_OF_ASC_NODE>90.4345</RA_OF_ASC_NODE><ARG_OF_PERICENTER>84.4133</ARG_OF_PERICENTER><MEAN_ANOMALY>275.7172</MEAN_ANOMALY></meanElements><tleParameters><EPHEMERIS_TYPE>0</EPHEMERIS_TYPE><CLASSIFICATION_TYPE>U</CLASSIFICATION_TYPE><NORAD_CAT_ID>48050</NORAD_CAT_ID><ELEMENT_SET_NO>999</ELEMENT_SET_NO><REV_AT_EPOCH>16768</REV_AT_EPOCH><BSTAR>-.91711E-3</BSTAR><MEAN_MOTION_DOT>-.322E-5</MEAN_MOTION_DOT><MEAN_MOTION_DDOT>0</MEAN_MOTION_DDOT></tleParameters></data></segment></body></omm>
<omm id="CCSDS_OMM_VERS" version="2.0">
<header><CREATION_DATE/><ORIGINATOR/></header><body><segment><metadata><OBJECT_NAME>ONEWEB-0112</OBJECT_NAME><OBJECT_ID>2021-025K</OBJECT_ID><CENTER_NAME>EARTH</CENTER_NAME><REF_FRAME>TEME</REF_FRAME><TIME_SYSTEM>UTC</TIME_SYSTEM><MEAN_ELEMENT_THEORY>SGP4</MEAN_ELEMENT_THEORY></metadata><data><meanElements><EPOCH>2024-09-01T02:58:41.317248</EPOCH><MEAN_MOTION>13.13468928</MEAN_MOTION><ECCENTRICITY>.0001769</ECCENTRICITY><INCLINATION>87.8855</INCLINATION><RA_OF_ASC_NODE>90.3727</RA_OF_ASC_NODE><ARG_OF_PERICENTER>82.1164</ARG_OF_PERICENTER><MEAN_ANOMALY>278.0166</MEAN_ANOMALY></meanElements><tleParameters><EPHEMERIS_TYPE>0</EPHEMERIS_TYPE><CLASSIFICATION_TYPE>U</CLASSIFICATION_TYPE><NORAD_CAT_ID>48051</NORAD_CAT_ID><ELEMENT_SET_NO>999</ELEMENT_SET_NO><REV_AT_EPOCH>16774</REV_AT_EPOCH><BSTAR>-.12666E-3</BSTAR><MEAN_MOTION_DOT>-.33E-6</MEAN_MOTION_DOT><MEAN_MOTION_DDOT>0</MEAN_MOTION_DDOT></tleParameters></data></segment></body></omm>
<omm id="CCSDS_OMM_VERS" version="2.0">
<header><CREATION_DATE/><ORIGINATOR/></header><body><segment><metadata><OBJECT_NAME>ONEWEB-0156</OBJECT_NAME><OBJECT_ID>2021-025L</OBJECT_ID><CENTER_NAME>EARTH</CENTER_NAME><REF_FRAME>TEME</REF_FRAME><TIME_SYSTEM>UTC</TIME_SYSTEM><MEAN_ELEMENT_THEORY>SGP4</MEAN_ELEMENT_THEORY></metadata><data><meanElements><EPOCH>2024-08-31T19:53:37.071456</EPOCH><MEAN_MOTION>13.13469437</MEAN_MOTION><ECCENTRICITY>.0001667</ECCENTRICITY><INCLINATION>87.8863</INCLINATION><RA_OF_ASC_NODE>90.4311</RA_OF_ASC_NODE><ARG_OF_PERICENTER>83.8513</ARG_OF_PERICENTER><MEAN_ANOMALY>276.2806</MEAN_ANOMALY></meanElements><tleParameters><EPHEMERIS_TYPE>0</EPHEMERIS_TYPE><CLASSIFICATION_TYPE>U</CLASSIFICATION_TYPE><NORAD_CAT_ID>48052</NORAD_CAT_ID><ELEMENT_SET_NO>999</ELEMENT_SET_NO><REV_AT_EPOCH>16767</REV_AT_EPOCH><BSTAR>-.79773E-3</BSTAR><MEAN_MOTION_DOT>-.279E-5</MEAN_MOTION_DOT><MEAN_MOTION_DDOT>0</MEAN_MOTION_DDOT></tleParameters></data></segment></body></omm>
<omm id="CCSDS_OMM_VERS" version="2.0">
<header><CREATION_DATE/><ORIGINATOR/></header><body><segment><metadata><OBJECT_NAME>ONEWEB-0161</OBJECT_NAME><OBJECT_ID>2021-025M</OBJECT_ID><CENTER_NAME>EARTH</CENTER_NAME><REF_FRAME>TEME</REF_FRAME><TIME_SYSTEM>UTC</TIME_SYSTEM><MEAN_ELEMENT_THEORY>SGP4</MEAN_ELEMENT_THEORY></metadata><data><meanElements><EPOCH>2024-09-01T02:33:32.459616</EPOCH><MEAN_MOTION>13.13472470</MEAN_MOTION><ECCENTRICITY>.0001903</ECCENTRICITY><INCLINATION>87.8858</INCLINATION><RA_OF_ASC_NODE>90.3855</RA_OF_ASC_NODE><ARG_OF_PERICENTER>88.7654</ARG_OF_PERICENTER><MEAN_ANOMALY>271.3693</MEAN_ANOMALY></meanElements><tleParameters><EPHEMERIS_TYPE>0</EPHEMERIS_TYPE><CLASSIFICATION_TYPE>U</CLASSIFICATION_TYPE><NORAD_CAT_ID>48053</NORAD_CAT_ID><ELEMENT_SET_NO>999</ELEMENT_SET_NO><REV_AT_EPOCH>16765</REV_AT_EPOCH><BSTAR>.11132E-2</BSTAR><MEAN_MOTION_DOT>.419E-5</MEAN_MOTION_DOT><MEAN_MOTION_DDOT>0</MEAN_MOTION_DDOT></tleParameters></data></segment></body></omm>

</ndm>
