48046,ONEWEB-0116,2021,109.63,148.0,+,87.89,Active,1,LEO,Russia,UK,Commercial,Communications,Soyuz,1 48046U 21025E   24244.83842402 -.00000201  00000+0 -58606-3 0  9991,2 48046  87.8862  90.4195 0001553  82.7638 277.3668 13.13471035167752,13.13471035,0.0001553,LEO
48047,ONEWEB-0150,2021,109.63,148.0,+,87.89,Active,1,LEO,Russia,UK,Commercial,Communications,Soyuz,1 48047U 21025F   24244.81303769  .00000045  00000+0  88611-4 0  9992,2 48047  87.8852  90.4395 0001856  83.7495 276.3845 13.13470315167646,13.13470315,0.0001856,LEO
48048,ONEWEB-0107,2021,109.63,148.0,+,87.89,Active,1,LEO,Russia,UK,Commercial,Communications,Soyuz,1 48048U 21025G   24244.81461690  .00000053  00000+0  11039-3 0  9999,2 48048  87.8854  90.4369 0001986  83.7278 276.4078 13.13470401167626,13.13470401,0.0001986,LEO
48049,ONEWEB-0101,2021,109.63,148.0,+,87.89,Active,1,LEO,Russia,UK,Commercial,Communications,Soyuz,1 48049U 21025H   24244.85429772  .00000182  00000+0  46268-3 0  9994,2 48049  87.8870  90.4493 0001970  88.2117 271.9237 13.13473631167601,13.13473631,0.000197,LEO
48050,ONEWEB-0113,2021,109.63,148.0,+,87.89,Active,1,LEO,Russia,UK,Commercial,Communications,Soyuz,1 48050U 21025J   24244.83206941 -.00000322  00000+0 -91711-3 0  9996,2 48050  87.8864  90.4345 0001540  84.4133 275.7172 13.13470762167681,13.13470762,0.000154,LEO
48051,ONEWEB-0112,2021,109.63,148.0,+,87.89,Active,1,LEO,Russia,UK,Commercial,Communications,Soyuz,1 48051U 21025K   24245.12408932 -.00000033  00000+0 -12666-3 0  9995,2 48051  87.8855  90.3727 0001769  82.1164 278.0166 13.13468928167744,13.13468928,0.0001769,LEO
48052,ONEWEB-0156,2021,109.63,148.0,+,87.89,Active,1,LEO,Russia,UK,Commercial,Communications,Soyuz,1 48052U 21025L   24244.82890129 -.00000279  00000+0 -79773-3 0  9999,2 48052  87.8863  90.4311 0001667  83.8513 276.2806 13.13469437167676,13.13469437,0.0001667,LEO
48053,ONEWEB-0161,2021,109.63,148.0,+,87.89,Active,1,LEO,Russia,UK,Commercial,Communications,Soyuz,1 48053U 21025M   24245.10662569  .00000419  00000+0  11132-2 0  9995,2 48053  87.8858  90.3855 0001903  88.7654 271.3693 13.13472470167655,13.1347247,0.0001903,LEO
